{
    "links": {
        "self": "http://www.neowsapp.com/rest/v1/neo/54017564?api_key=iIulBulltgU6a56xZRHN4H3l9WmuAYTsLGpBGhQ2"
    },
    "id": "54017564",
    "neo_reference_id": "54017564",
    "name": "(2020 MB1)",
    "designation": "2020 MB1",
    "nasa_jpl_url": "http://ssd.jpl.nasa.gov/sbdb.cgi?sstr=54017564",
    "absolute_magnitude_h": 21.826,
    "estimated_diameter": {
        "kilometers": {
            "estimated_diameter_min": 0.1146449625,
            "estimated_diameter_max": 0.2563539294
        },
        "meters": {
            "estimated_diameter_min": 114.6449625059,
            "estimated_diameter_max": 256.3539294411
        },
        "miles": {
            "estimated_diameter_min": 0.071237055,
            "estimated_diameter_max": 0.1592908975
        },
        "feet": {
            "estimated_diameter_min": 376.1317787879,
            "estimated_diameter_max": 841.0562258676
        }
    },
    "is_potentially_hazardous_asteroid": false,
    "close_approach_data": [
        {
            "close_approach_date": "2020-06-25",
            "close_approach_date_full": "2020-Jun-25 04:17",
            "epoch_date_close_approach": 1593058620000,
            "relative_velocity": {
                "kilometers_per_second": "29.5758343501",
                "kilometers_per_hour": "106473.003660189",
                "miles_per_hour": "66158.1838576324"
            },
            "miss_distance": {
                "astronomical": "0.2943414",
                "lunar": "114.4988046",
                "kilometers": "44032846.492818",
                "miles": "27360742.0761684"
            },
            "orbiting_body": "Earth"
        },
        {
            "close_approach_date": "2020-12-04",
            "close_approach_date_full": "2020-Dec-04 03:00",
            "epoch_date_close_approach": 1607050800000,
            "relative_velocity": {
                "kilometers_per_second": "28.1804172347",
                "kilometers_per_hour": "101449.5020450917",
                "miles_per_hour": "63036.7753124071"
            },
            "miss_distance": {
                "astronomical": "0.4999395579",
                "lunar": "194.4764880231",
                "kilometers": "74789892.990581673",
                "miles": "46472284.5558781674"
            },
            "orbiting_body": "Earth"
        }
    ],
    "orbital_data": {
        "orbit_id": "2",
        "orbit_determination_date": "2020-06-24 08:07:48",
        "first_observation_date": "2020-06-17",
        "last_observation_date": "2020-06-23",
        "data_arc_in_days": 6,
        "observations_used": 18,
        "orbit_uncertainty": "9",
        "minimum_orbit_intersection": ".173542",
        "jupiter_tisserand_invariant": "3.280",
        "epoch_osculation": "2459020.5",
        "eccentricity": ".5507539171995389",
        "semi_major_axis": "1.877995819110222",
        "inclination": "59.46635943569745",
        "ascending_node_longitude": "84.43919679546443",
        "orbital_period": "940.0270663578131",
        "perihelion_distance": ".8436822652509103",
        "perihelion_argument": "262.5429404179476",
        "aphelion_distance": "2.912309372969533",
        "perihelion_time": "2459095.812981593138",
        "mean_anomaly": "331.1575609428149",
        "mean_motion": ".382967696233301",
        "equinox": "J2000",
        "orbit_class": {
            "orbit_class_type": "APO",
            "orbit_class_description": "Near-Earth asteroid orbits which cross the Earth’s orbit similar to that of 1862 Apollo",
            "orbit_class_range": "a (semi-major axis) > 1.0 AU; q (perihelion) < 1.017 AU"
        }
    },
    "is_sentry_object": false
}